2022-169B               
1 54700U 22169B   22355.35428174  .00000261  00000+0  15742-3 0  9997
2 54700  59.9942 127.3952 0007027 237.6863 122.3471 14.28667262  1281
2022-169C               
1 54701U 22169C   22355.29476211  .00000219  00000+0  93173-4 0  9994
2 54701  59.9559 126.5378 0094343  47.7892 313.1136 14.49496009  1299
2022-169D               
1 54702U 22169D   22355.35185503  .00000902  00000+0  40769-3 0  9994
2 54702  59.9970 127.3879 0006301 247.5302 112.5041 14.29138441  1292
SZ-14 MODULE            
1 54704U 22060G   22355.52483263  .00024898  00000+0  29364-3 0  9997
2 54704  41.4866 158.3333 0008335 187.9504 278.4396 15.60736779  2417
GALAXY 35 (G-35)        
1 54741U 22170A   22354.48052271  .00000088  00000+0  00000+0 0  9992
2 54741   3.2800 218.0866 5571715 180.1209  86.7088  1.94784646   128
GALAXY 36 (G-36)        
1 54742U 22170B   22350.43859110 -.00000334  00000+0  00000+0 0  9996
2 54742   3.4336 218.5937 5690547 178.9969 147.4018  1.97366996    59
METEOSAT-12             
1 54743U 22170C   22353.31524981 -.00000002  00000+0  00000+0 0  9994
2 54743   5.5504 217.8990 7131836 181.4542 110.3708  2.25104636   115
ARIANE 5 DEB [SYLDA]    
1 54744U 22170D   22355.07314762  .00036969  00000+0  66752-2 0  9993
2 54744   6.0023 216.0262 7285246 184.0081 162.6366  2.28631328   164
ARIANE 5 R/B            
1 54745U 22170E   22350.70750442  .00034354  00000+0  36366-2 0  9992
2 54745   5.8807 219.6241 7285962 178.2913 187.0722  2.29667630    64
2022-171A               
1 54746U 22171A   22355.13173284 -.00000037  00000+0  00000+0 0  9994
2 54746  34.9940 295.1934 0007144 310.1109 185.2155 15.22777545   979
2022-171B               
1 54747U 22171B   22355.32733708 -.00000038  00000+0  00000+0 0  9990
2 54747  35.0003 293.9565 0007971 322.6885 175.4101 15.23529194   973
2022-171C               
1 54748U 22171C   22355.14231481 -.00000038  00000+0  00000+0 0  9992
2 54748  34.9949 295.1067 0009832 332.4646 231.6581 15.23226521   946
2022-171D               
1 54749U 22171D   22354.98483594 -.00000038  00000+0  00000+0 0  9998
2 54749  34.9957 296.0848 0009625 324.1759  99.5783 15.23864413   927
2022-171E               
1 54750U 22171E   22355.13776620 -.00000038  00000+0  00000+0 0  9993
2 54750  34.9952 295.1126 0009670 342.8886 203.4258 15.23697617   935
2022-167Q               
1 54751U 22167Q   22355.46405116  .00008126  00000+0  50745-3 0  9994
2 54751  97.5361 130.2588 0013501 238.2746 210.9145 15.09663586  1499
SHIYAN 21               
1 54752U 22172A   22354.84298654  .00008298  00000+0  30130-3 0  9995
2 54752  35.9985 126.2035 0014119 340.9925 163.2728 15.27625419   709
SWOT                    
1 54754U 22173A   22355.28854458  .00137721  00000+0  76186-1 0  9990
2 54754  77.5911 319.4942 0003464  21.1613 338.9423 14.10336321   679
2022-174A               
1 54755U 22174A   22354.18870313  .00000047  00000+0  00000+0 0  9998
2 54755   9.6160 255.9695 1871675 189.7959 165.9945  7.26208386   241
2022-174B               
1 54756U 22174B   22355.01311741  .00000047  00000+0  00000+0 0  9997
2 54756   9.6190 254.7762 1869900 192.2077 162.5686  7.26305343   296
2022-174C               
1 54757U 22174C   22353.36484503  .00000047  00000+0  00000+0 0  9991
2 54757   9.6209 257.1735 1868337 187.4265 169.3825  7.25878007   160
NOAA 1 [-]              
1 04793U 70106A   22355.15452640 -.00000015  00000+0  17963-3 0  9996
2 04793 101.5328  54.0830 0031274 318.9723  55.3937 12.54010037381473
NOAA 2 (ITOS-D) [-]     
1 06235U 72082A   22355.25974058 -.00000015  00000+0  19650-3 0  9992
2 06235 101.9752 338.7997 0004210  77.0511 294.4454 12.53155219295593
NOAA 3 [-]              
1 06920U 73086A   22354.47929241 -.00000028  00000+0  13513-3 0  9991
2 06920 102.2299 336.7094 0006581 309.6991 204.4873 12.40351277223853
NOAA 4 [-]              
1 07529U 74089A   22354.46335543 -.00000027  00000+0  12051-3 0  9991
2 07529 101.9373 334.7982 0009107 107.2450  11.4549 12.53163551199848
NOAA 5 [-]              
1 09057U 76077A   22354.46502995 -.00000042  00000+0  26768-4 0  9993
2 09057 102.1280 320.6476 0009564 155.1406 320.5591 12.37777460 96757
TIROS N [-]             
1 11060U 78096A   22354.43385603  .00000188  00000+0  11169-3 0  9993
2 11060  98.6114  43.0168 0009959 332.9147  27.1508 14.18451871497971
NOAA 6 [-]              
1 11416U 79057A   22354.65744752  .00000327  00000+0  13334-3 0  9995
2 11416  98.6599   5.7806 0011360  71.3324 288.9093 14.33857935268416
NOAA 7 [-]              
1 12553U 81059A   22354.73931775  .00000075  00000+0  59531-4 0  9995
2 12553  98.9748  41.2370 0010679 309.0749  50.9474 14.17362538144407
NOAA 8 [-]              
1 13923U 83022A   22354.97812855  .00000165  00000+0  82897-4 0  9993
2 13923  98.7013 344.9390 0015582  27.6727 332.5280 14.28868454 69303
NOAA 9 [-]              
1 15427U 84123A   22355.40780160  .00000154  00000+0  10082-3 0  9993
2 15427  99.0700 330.9527 0014882 359.5693 153.8867 14.16257783963301
NOAA 10 [-]             
1 16969U 86073A   22355.21394583  .00000153  00000+0  78903-4 0  9996
2 16969  98.5869 338.1085 0013073 122.4635 248.1563 14.28256304887752
NOAA 11 [-]             
1 19531U 88089A   22354.69500649  .00000090  00000+0  67209-4 0  9993
2 19531  98.4442 333.7220 0011299   8.0109 352.1244 14.15341008767415
NOAA 12 [-]             
1 21263U 91032A   22354.50122344  .00000125  00000+0  70104-4 0  9999
2 21263  98.5230 349.1918 0014146 150.9251 209.2720 14.26037395643248
NOAA 13 [-]             
1 22739U 93050A   22354.76873335  .00000134  00000+0  94205-4 0  9999
2 22739  98.5292 325.4959 0009672 164.0616 196.0863 14.12891560513600
NOAA 14 [-]             
1 23455U 94089A   22354.41719896  .00000062  00000+0  53890-4 0  9996
2 23455  98.4351  10.9483 0010135 144.4375 215.7476 14.14225444442995
NOAA 15 [B]             
1 25338U 98030A   22355.53004116  .00000177  00000+0  92175-4 0  9990
2 25338  98.6262  22.4550 0011383 110.6225 249.6177 14.26210751279932
NOAA 16 [-]             
1 26536U 00055A   22354.51419769  .00000098  00000+0  74855-4 0  9999
2 26536  98.6124  46.7659 0010386   0.5626 359.5557 14.13367137443633
NOAA 17 [-]             
1 27453U 02032A   22355.18609159  .00000170  00000+0  90994-4 0  9996
2 27453  98.6952 298.4541 0012925  88.8403 271.4257 14.25179589 65465
NOAA 18 [B]             
1 28654U 05018A   22355.45898962  .00000204  00000+0  13390-3 0  9991
2 28654  98.9312  65.5732 0014706 159.8509 200.3246 14.12825249906473
NOAA 19 [+]             
1 33591U 09005A   22355.55257125  .00000206  00000+0  13604-3 0  9998
2 33591  99.1264  33.4242 0014214  26.3183 333.8707 14.12654477714865
SUOMI NPP [+]           
1 37849U 11061A   22355.42294765  .00000089  00000+0  63065-4 0  9996
2 37849  98.7522 291.5207 0001313  93.4071  45.7775 14.19527693577713
NOAA 20 [+]             
1 43013U 17073A   22355.50053692  .00000081  00000+0  59233-4 0  9990
2 43013  98.7361 291.2649 0000715 113.0981 247.0270 14.19537547263768
CELESTIS-02             
1 25160U 98007D   22355.36706689  .00000025  00000+0  68741-4 0  9996
2 25160 107.9859 283.1544 0061468 151.8490 318.6999 14.21673443289644
CELESTIS-03             
1 26034U 99070C   22354.87809974  .00030633  00000+0  11658-2 0  9995
2 26034  98.3014  20.2868 0007439 203.3179 156.7721 15.26680775249445
O3B FM5                 
1 39188U 13031A   22354.37543807 -.00000006  00000+0  00000+0 0  9995
2 39188   0.0657   7.0109 0002858 266.9095  86.0506  5.00115335173263
O3B FM4                 
1 39189U 13031B   22355.23093072 -.00000007  00000+0  00000+0 0  9997
2 39189   0.0400 354.8109 0002796 280.0697  85.0908  5.00115837173418
O3B FM2                 
1 39190U 13031C   22354.52288605 -.00000006  00000+0  00000+0 0  9997
2 39190   0.0364 349.3223 0002781 282.5576  88.0919  5.00115133173337
O3B PFM                 
1 39191U 13031D   22354.34920989 -.00000006  00000+0  00000+0 0  9996
2 39191   0.0567   5.6614 0002758 263.4977  90.8129  5.00115787172895
O3B FM3                 
1 40079U 14038A   22354.40400403 -.00000006  00000+0  00000+0 0  9992
2 40079   0.0471 358.7698 0004370 240.6531 120.5377  5.00116618149260
O3B FM7                 
1 40080U 14038B   22354.35010621 -.00000006  00000+0  00000+0 0  9997
2 40080   0.0462 353.4597 0002928 314.3557  52.1619  5.00115534154100
O3B FM6                 
1 40081U 14038C   22355.37596109 -.00000007  00000+0  00000+0 0  9992
2 40081   0.0461 359.2142 0002828 271.1455  89.6112  5.00115274154425
O3B FM8                 
1 40082U 14038D   22354.43036831 -.00000006  00000+0  00000+0 0  9999
2 40082   0.0430 358.6740 0002670 268.8094  92.4897  5.00115682154173
O3B FM10                
1 40348U 14083A   22354.25663349 -.00000006  00000+0  00000+0 0  9994
2 40348   0.0519   7.3938 0002730 261.6911  90.8875  5.00115138146118
O3B FM11                
1 40349U 14083B   22354.46993678 -.00000006  00000+0  00000+0 0  9999
2 40349   0.0545   3.1588 0003028 278.9366  77.8742  5.00115383146131
O3B FM12                
1 40350U 14083C   22355.29672946 -.00000007  00000+0  00000+0 0  9996
2 40350   0.0535   3.1903 0002938 268.7769  88.0025  5.00115249146337
O3B FM9                 
1 40351U 14083D   22353.92422689 -.00000006  00000+0  00000+0 0  9991
2 40351   0.0555   2.4759 0002746 267.9132  89.5832  5.00116077146278
DIAMOND RED             
1 42783U 17036U   22355.09138499  .00013362  00000+0  44441-3 0  9995
2 42783  97.1779  29.6395 0010592  33.8496 326.3420 15.31227572305463
DIAMOND GREEN           
1 42785U 17036W   22355.08849937  .00013648  00000+0  45199-3 0  9990
2 42785  97.1778  29.7103 0010376  35.4691 324.7239 15.31363105305459
DIAMOND BLUE            
1 42786U 17036X   22354.63139305  .00015217  00000+0  50455-3 0  9997
2 42786  97.1782  29.2578 0010541  37.1821 323.0149 15.31298184305382
